NORAD_CAT_ID,OBJECT_NAME,OBJECT_TYPE,EPOCH,MEAN_MOTION,ECCENTRICITY,INCLINATION,RA_OF_ASC_NODE,ARG_OF_PERICENTER,MEAN_ANOMALY,BSTAR,MEAN_MOTION_DOT,MEAN_MOTION_DDOT,TLE_LINE0,TLE_LINE1,TLE_LINE2,SEMIMAJOR_AXIS,PERIOD,APOGEE,PERIGEE,DECAYED
53901.0,STARLINK-5024,PAYLOAD,2023-10-30 05:05:50,15.08852841,0.0001603,53.2165,231.239,110.9624,249.154,0.00031763,4.772e-05,0.0,0 STARLINK-5024,1 53901U 22119R   23303.21238746  .00004772  00000-0  31763-3 0  9990,2 53901  53.2165 231.2390 0001603 110.9624 249.1540 15.08852841 61212,6917.841,95.437,540.815,538.597,0.0
53901.0,STARLINK-5024,PAYLOAD,2023-10-31 19:15:06,15.08839334,0.0001457,53.2168,224.1037,84.7641,275.3518,0.00011352,1.519e-05,0.0,0 STARLINK-5024,1 53901U 22119R   23304.80215538  .00001519  00000-0  11352-3 0  9998,2 53901  53.2168 224.1037 0001457  84.7641 275.3518 15.08839334 61452,6917.882,95.438,540.755,538.739,0.0
53901.0,STARLINK-5024,PAYLOAD,2023-10-31 22:25:52,15.08848817,0.0001591,53.217,223.5087,92.5572,267.5602,0.00021957,3.209e-05,0.0,0 STARLINK-5024,1 53901U 22119R   23304.93463081  .00003209  00000-0  21957-3 0  9990,2 53901  53.2170 223.5087 0001591  92.5572 267.5602 15.08848817 61893,6917.853,95.437,540.819,538.618,0.0
53901.0,STARLINK-5024,PAYLOAD,2023-11-01 01:36:38,15.08852234,0.0001458,53.2169,222.9146,94.7531,265.3628,0.00021552,3.145e-05,0.0,0 STARLINK-5024,1 53901U 22119R   23305.06710764  .00003145  00000-0  21552-3 0  9998,2 53901  53.2169 222.9146 0001458  94.7531 265.3628 15.08852234 61499,6917.843,95.437,540.717,538.699,0.0
53901.0,STARLINK-5024,PAYLOAD,2023-11-01 11:08:57,15.088381,0.0001409,53.217,221.1298,81.3044,278.8108,-6.9715e-05,-1.397e-05,0.0,0 STARLINK-5024,1 53901U 22119R   23305.46455256 -.00001397  00000-0 -69715-4 0  9997,2 53901  53.2170 221.1298 0001409  81.3044 278.8108 15.08838100 61552,6917.886,95.438,540.726,538.776,0.0
53901.0,STARLINK-5024,PAYLOAD,2023-11-01 22:16:40,15.08809408,0.000166,53.2169,219.0505,84.6338,275.4843,0.00082313,0.00012825,0.0,0 STARLINK-5024,1 53901U 22119R   23305.92824915  .00012825  00000-0  82313-3 0  9994,2 53901  53.2169 219.0505 0001660  84.6338 275.4843 15.08809408 62041,6917.974,95.439,540.987,538.691,0.0
53901.0,STARLINK-5024,PAYLOAD,2023-11-02 01:27:26,15.08823919,0.0001575,53.2164,218.454,81.2841,278.8329,0.00085399,0.00013323,0.0,0 STARLINK-5024,1 53901U 22119R   23306.06072352  .00013323  00000-0  85399-3 0  9991,2 53901  53.2164 218.4540 0001575  81.2841 278.8329 15.08823919 61649,6917.93,95.439,540.884,538.705,0.0
53901.0,STARLINK-5024,PAYLOAD,2023-11-02 10:59:44,15.08839056,0.0001513,53.2165,216.6714,85.1548,274.9617,2.2366e-05,6.8e-07,0.0,0 STARLINK-5024,1 53901U 22119R   23306.45815489  .00000068  00000-0  22366-4 0  9998,2 53901  53.2165 216.6714 0001513  85.1548 274.9617 15.08839056 61705,6917.883,95.438,540.795,538.702,0.0
53901.0,STARLINK-5024,PAYLOAD,2023-11-02 22:07:26,15.08839179,0.0001505,53.2163,214.5904,92.1093,268.0072,-7.0696e-05,-1.413e-05,0.0,0 STARLINK-5024,1 53901U 22119R   23306.92183472 -.00001413  00000-0 -70696-4 0  9996,2 53901  53.2163 214.5904 0001505  92.1093 268.0072 15.08839179 62194,6917.883,95.438,540.789,538.707,0.0
53901.0,STARLINK-5024,PAYLOAD,2023-11-03 10:50:31,15.08839848,0.0001815,53.2176,212.2126,87.9118,272.2082,1.5624e-05,-3.9e-07,0.0,0 STARLINK-5024,1 53901U 22119R   23307.45175552 -.00000039  00000-0  15624-4 0  9997,2 53901  53.2176 212.2126 0001815  87.9118 272.2082 15.08839848 62273,6917.881,95.438,541.001,538.49,0.0
53901.0,STARLINK-5024,PAYLOAD,2023-11-03 21:58:14,15.08835264,0.0002126,53.2171,210.1296,81.6518,278.4715,5.2539e-05,5.48e-06,0.0,0 STARLINK-5024,1 53901U 22119R   23307.91544034  .00000548  00000-0  52539-4 0  9993,2 53901  53.2171 210.1296 0002126  81.6518 278.4715 15.08835264 62341,6917.895,95.438,541.231,538.289,0.0
53901.0,STARLINK-5024,PAYLOAD,2023-11-04 02:44:22,15.08844297,0.0001247,53.216,209.2369,99.936,260.1773,0.00011662,1.569e-05,0.0,0 STARLINK-5024,1 53901U 22119R   23308.11415210  .00001569  00000-0  11662-3 0  9994,2 53901  53.2160 209.2369 0001247  99.9360 260.1773 15.08844297 61953,6917.867,95.437,540.595,538.87,0.0
53901.0,STARLINK-5024,PAYLOAD,2023-11-04 10:41:19,15.08837841,0.0001475,53.2176,207.7491,85.4687,274.6474,-1.1639e-05,-4.73e-06,0.0,0 STARLINK-5024,1 53901U 22119R   23308.44536247 -.00000473  00000-0 -11639-4 0  9994,2 53901  53.2176 207.7491 0001475  85.4687 274.6474 15.08837841 62006,6917.887,95.438,540.772,538.732,0.0
53901.0,STARLINK-5024,PAYLOAD,2023-11-04 21:49:01,15.08836178,0.0001725,53.2182,205.6669,90.3102,269.8088,8.7454e-05,1.104e-05,0.0,0 STARLINK-5024,1 53901U 22119R   23308.90904470  .00001104  00000-0  87454-4 0  9990,2 53901  53.2182 205.6669 0001725  90.3102 269.8088 15.08836178 62494,6917.892,95.438,540.95,538.564,0.0
53901.0,STARLINK-5024,PAYLOAD,2023-11-05 02:35:09,15.08856235,0.000145,53.2176,204.7753,92.1133,268.0025,0.00012506,1.704e-05,0.0,0 STARLINK-5024,1 53901U 22119R   23309.10775002  .00001704  00000-0  12506-3 0  9991,2 53901  53.2176 204.7753 0001450  92.1133 268.0025 15.08856235 62106,6917.831,95.437,540.699,538.693,0.0
53901.0,STARLINK-5024,PAYLOAD,2023-11-05 10:32:05,15.08851599,0.0001383,53.2167,203.287,89.6799,270.4352,6.0245e-05,6.71e-06,0.0,0 STARLINK-5024,1 53901U 22119R   23309.43895256  .00000671  00000-0  60245-4 0  9997,2 53901  53.2167 203.2870 0001383  89.6799 270.4352 15.08851599 62157,6917.845,95.437,540.667,538.753,0.0
53901.0,STARLINK-5024,PAYLOAD,2023-11-05 23:15:10,15.08857691,7.81e-05,53.2168,200.9096,84.2225,275.8856,0.00039275,5.971e-05,0.0,0 STARLINK-5024,1 53901U 22119R   23309.96886696  .00005971  00000-0  39275-3 0  9999,2 53901  53.2168 200.9096 0000781  84.2225 275.8856 15.08857691 62650,6917.826,95.436,540.232,539.151,0.0
53901.0,STARLINK-5024,PAYLOAD,2023-11-06 10:22:50,15.08878112,0.0001643,53.2158,198.8271,102.5963,257.5213,0.00044676,6.837e-05,0.0,0 STARLINK-5024,1 53901U 22119R   23310.43252845  .00006837  00000-0  44676-3 0  9999,2 53901  53.2158 198.8271 0001643 102.5963 257.5213 15.08878112 62307,6917.764,95.435,540.765,538.492,0.0
53901.0,STARLINK-5024,PAYLOAD,2023-11-06 23:05:58,15.08809727,0.0001619,53.217,196.4506,99.8929,260.2246,-0.00041086,-6.815e-05,0.0,0 STARLINK-5024,1 53901U 22119R   23310.96248580 -.00006815  00000-0 -41086-3 0  9998,2 53901  53.2170 196.4506 0001619  99.8929 260.2246 15.08809727 62807,6917.973,95.439,540.958,538.718,0.0
53901.0,STARLINK-5024,PAYLOAD,2023-11-07 02:16:45,15.08807342,0.0001566,53.2159,195.8514,100.4866,259.6303,-0.00058749,-9.617e-05,0.0,0 STARLINK-5024,1 53901U 22119R   23311.09497062 -.00009617  00000-0 -58749-3 0  9991,2 53901  53.2159 195.8514 0001566 100.4866 259.6303 15.08807342 62409,6917.98,95.44,540.929,538.762,0.0
53901.0,STARLINK-5024,PAYLOAD,2023-11-07 19:45:59,15.08820162,0.0001532,53.2165,192.586,100.8447,259.2718,-0.00032751,-5.494e-05,0.0,0 STARLINK-5024,1 53901U 22119R   23311.82361087 -.00005494  00000-0 -32751-3 0  9993,2 53901  53.2165 192.5860 0001532 100.8447 259.2718 15.08820162 62519,6917.941,95.439,540.866,538.746,0.0
53901.0,STARLINK-5024,PAYLOAD,2023-11-08 02:07:32,15.0883745,0.0001513,53.2158,191.3922,100.1761,259.9402,-0.00021154,-3.653e-05,0.0,0 STARLINK-5024,1 53901U 22119R   23312.08856506 -.00003653  00000-0 -21154-3 0  9997,2 53901  53.2158 191.3922 0001513 100.1761 259.9402 15.08837450 62557,6917.888,95.438,540.8,538.707,0.0
53901.0,STARLINK-5024,PAYLOAD,2023-11-08 19:36:48,15.08820447,0.0001493,53.2158,188.1215,107.3154,252.8001,0.00046322,7.088e-05,0.0,0 STARLINK-5024,1 53901U 22119R   23312.81722243  .00007088  00000-0  46322-3 0  9996,2 53901  53.2158 188.1215 0001493 107.3154 252.8001 15.08820447 62665,6917.94,95.439,540.838,538.772,0.0
53901.0,STARLINK-5024,PAYLOAD,2023-11-08 22:47:34,15.08806706,0.000166,53.2162,187.5319,103.0198,257.098,0.00023857,3.507e-05,0.0,0 STARLINK-5024,1 53901U 22119R   23312.94971062  .00003507  00000-0  23857-3 0  9995,2 53901  53.2162 187.5319 0001660 103.0198 257.0980 15.08806706 63100,6917.982,95.44,540.996,538.699,0.0
53901.0,STARLINK-5024,PAYLOAD,2023-11-09 19:27:35,15.08837074,0.0001534,53.2153,183.6616,95.5736,264.5431,0.00011912,1.608e-05,0.0,0 STARLINK-5024,1 53901U 22119R   23313.81082264  .00001608  00000-0  11912-3 0  9998,2 53901  53.2153 183.6616 0001534  95.5736 264.5431 15.08837074 62813,6917.889,95.438,540.816,538.693,0.0
53901.0,STARLINK-5024,PAYLOAD,2023-11-09 22:38:20,15.08848018,0.0001472,53.2157,183.0672,99.0147,261.1011,0.00023942,3.525e-05,0.0,0 STARLINK-5024,1 53901U 22119R   23313.94329449  .00003525  00000-0  23942-3 0  9997,2 53901  53.2157 183.0672 0001472  99.0147 261.1011 15.08848018 63255,6917.856,95.437,540.739,538.703,0.0
53901.0,STARLINK-5024,PAYLOAD,2023-11-10 00:13:43,15.08843527,0.0001532,53.2167,182.7714,100.6861,259.4303,0.00027622,4.111e-05,0.0,0 STARLINK-5024,1 53901U 22119R   23314.00953659  .00004111  00000-0  27622-3 0  9992,2 53901  53.2167 182.7714 0001532 100.6861 259.4303 15.08843527 62846,6917.87,95.437,540.794,538.675,0.0
53901.0,STARLINK-5024,PAYLOAD,2023-11-10 08:10:39,15.0884914,0.000154,53.2154,181.2833,93.8887,266.2281,0.00022578,3.308e-05,0.0,0 STARLINK-5024,1 53901U 22119R   23314.34073613  .00003308  00000-0  22578-3 0  9994,2 53901  53.2154 181.2833 0001540  93.8887 266.2281 15.08849140 63319,6917.852,95.437,540.783,538.652,0.0
53901.0,STARLINK-5024,PAYLOAD,2023-11-10 19:18:21,15.08840018,0.0001627,53.2165,179.2023,97.3442,262.7736,0.00026338,3.906e-05,0.0,0 STARLINK-5024,1 53901U 22119R   23314.80441697  .00003906  00000-0  26338-3 0  9998,2 53901  53.2165 179.2023 0001627  97.3442 262.7736 15.08840018 62962,6917.88,95.438,540.871,538.62,0.0
53901.0,STARLINK-5024,PAYLOAD,2023-11-11 00:04:30,15.08843196,0.000167,53.2167,178.3107,97.6625,262.4557,0.00026723,3.968e-05,0.0,0 STARLINK-5024,1 53901U 22119R   23315.00313338  .00003968  00000-0  26723-3 0  9997,2 53901  53.2167 178.3107 0001670  97.6625 262.4557 15.08843196 63410,6917.871,95.437,540.891,538.58,0.0
